{
 "generated_at": "2026-06-11T23:47:41Z",
 "sources": [
  {
   "name": "CelesTrak",
   "url": "https://celestrak.org/NORAD/elements/",
   "license": "frei verfügbar; Attribution. Ursprünglich USSPACECOM/Space-Track."
  },
  {
   "name": "GCAT (J. McDowell, planet4589.org)",
   "url": "https://planet4589.org/space/gcat/",
   "license": "CC-BY 4.0"
  }
 ],
 "satellites": [
  {
   "norad": 40732,
   "name": "METEOSAT-11 (MSG-4)",
   "intl": "2015-034A",
   "group": "weather",
   "gcat": {
    "class": "C",
    "category": "MET",
    "owner": "EUMET",
    "state": "I-EUM"
   },
   "omm": {
    "OBJECT_NAME": "METEOSAT-11 (MSG-4)",
    "OBJECT_ID": "2015-034A",
    "EPOCH": "2026-06-11T16:42:47.255328",
    "MEAN_MOTION": 1.00278631,
    "ECCENTRICITY": 0.0001744,
    "INCLINATION": 3.1883,
    "RA_OF_ASC_NODE": 71.142,
    "ARG_OF_PERICENTER": 7.6014,
    "MEAN_ANOMALY": 81.5005,
    "EPHEMERIS_TYPE": 0,
    "CLASSIFICATION_TYPE": "U",
    "NORAD_CAT_ID": 40732,
    "ELEMENT_SET_NO": 999,
    "REV_AT_EPOCH": 716,
    "BSTAR": 0,
    "MEAN_MOTION_DOT": 7.9e-7,
    "MEAN_MOTION_DDOT": 0
   }
  },
  {
   "norad": 54743,
   "name": "METEOSAT-12 (MTG-I1)",
   "intl": "2022-170C",
   "group": "weather",
   "gcat": {
    "class": "C",
    "category": "MET",
    "owner": "EUMET",
    "state": "I-EUM"
   },
   "omm": {
    "OBJECT_NAME": "METEOSAT-12 (MTG-I1)",
    "OBJECT_ID": "2022-170C",
    "EPOCH": "2026-06-11T16:39:55.029888",
    "MEAN_MOTION": 1.00271721,
    "ECCENTRICITY": 0.0003235,
    "INCLINATION": 0.7318,
    "RA_OF_ASC_NODE": 21.9787,
    "ARG_OF_PERICENTER": 72.0387,
    "MEAN_ANOMALY": 55.5733,
    "EPHEMERIS_TYPE": 0,
    "CLASSIFICATION_TYPE": "U",
    "NORAD_CAT_ID": 54743,
    "ELEMENT_SET_NO": 999,
    "REV_AT_EPOCH": 1292,
    "BSTAR": 0,
    "MEAN_MOTION_DOT": 8e-8,
    "MEAN_MOTION_DDOT": 0
   }
  },
  {
   "norad": 28912,
   "name": "METEOSAT-9 (MSG-2)",
   "intl": "2005-049B",
   "group": "weather",
   "gcat": {
    "class": "C",
    "category": "MET",
    "owner": "EUMET",
    "state": "I-EUM"
   },
   "omm": {
    "OBJECT_NAME": "METEOSAT-9 (MSG-2)",
    "OBJECT_ID": "2005-049B",
    "EPOCH": "2026-06-10T20:21:02.721024",
    "MEAN_MOTION": 1.00269523,
    "ECCENTRICITY": 0.0001608,
    "INCLINATION": 9.3464,
    "RA_OF_ASC_NODE": 54.2281,
    "ARG_OF_PERICENTER": 348.0762,
    "MEAN_ANOMALY": 207.8226,
    "EPHEMERIS_TYPE": 0,
    "CLASSIFICATION_TYPE": "U",
    "NORAD_CAT_ID": 28912,
    "ELEMENT_SET_NO": 999,
    "REV_AT_EPOCH": 693,
    "BSTAR": 0,
    "MEAN_MOTION_DOT": 0.00000136,
    "MEAN_MOTION_DDOT": 0
   }
  },
  {
   "norad": 38771,
   "name": "METOP-B",
   "intl": "2012-049A",
   "group": "weather",
   "gcat": {
    "class": "C",
    "category": "MET",
    "owner": "EUMET",
    "state": "I-EUM"
   },
   "omm": {
    "OBJECT_NAME": "METOP-B",
    "OBJECT_ID": "2012-049A",
    "EPOCH": "2026-06-11T16:46:42.180384",
    "MEAN_MOTION": 14.21431239,
    "ECCENTRICITY": 0.0002565,
    "INCLINATION": 98.6506,
    "RA_OF_ASC_NODE": 214.3076,
    "ARG_OF_PERICENTER": 32.8216,
    "MEAN_ANOMALY": 327.3121,
    "EPHEMERIS_TYPE": 0,
    "CLASSIFICATION_TYPE": "U",
    "NORAD_CAT_ID": 38771,
    "ELEMENT_SET_NO": 999,
    "REV_AT_EPOCH": 71248,
    "BSTAR": 0.000059179,
    "MEAN_MOTION_DOT": 8.6e-7,
    "MEAN_MOTION_DDOT": 0
   }
  },
  {
   "norad": 43689,
   "name": "METOP-C",
   "intl": "2018-087A",
   "group": "weather",
   "gcat": {
    "class": "C",
    "category": "MET",
    "owner": "EUMET",
    "state": "I-EUM"
   },
   "omm": {
    "OBJECT_NAME": "METOP-C",
    "OBJECT_ID": "2018-087A",
    "EPOCH": "2026-06-11T15:33:25.737120",
    "MEAN_MOTION": 14.21510643,
    "ECCENTRICITY": 0.0001569,
    "INCLINATION": 98.6645,
    "RA_OF_ASC_NODE": 222.3528,
    "ARG_OF_PERICENTER": 135.523,
    "MEAN_ANOMALY": 224.6074,
    "EPHEMERIS_TYPE": 0,
    "CLASSIFICATION_TYPE": "U",
    "NORAD_CAT_ID": 43689,
    "ELEMENT_SET_NO": 999,
    "REV_AT_EPOCH": 39404,
    "BSTAR": 0.000057114,
    "MEAN_MOTION_DOT": 8.2e-7,
    "MEAN_MOTION_DDOT": 0
   }
  },
  {
   "norad": 65159,
   "name": "METOP-SGA1",
   "intl": "2025-172A",
   "group": "weather",
   "gcat": {
    "class": "C",
    "category": "MET",
    "owner": "EUMET",
    "state": "I-EUM"
   },
   "omm": {
    "OBJECT_NAME": "METOP-SGA1",
    "OBJECT_ID": "2025-172A",
    "EPOCH": "2026-06-11T15:33:52.725024",
    "MEAN_MOTION": 14.21508922,
    "ECCENTRICITY": 0.0000944,
    "INCLINATION": 98.6645,
    "RA_OF_ASC_NODE": 222.4772,
    "ARG_OF_PERICENTER": 89.4814,
    "MEAN_ANOMALY": 270.6472,
    "EPHEMERIS_TYPE": 0,
    "CLASSIFICATION_TYPE": "U",
    "NORAD_CAT_ID": 65159,
    "ELEMENT_SET_NO": 999,
    "REV_AT_EPOCH": 4300,
    "BSTAR": 0.00003443,
    "MEAN_MOTION_DOT": 3.2e-7,
    "MEAN_MOTION_DDOT": 0
   }
  },
  {
   "norad": 64899,
   "name": "MICROCARB",
   "intl": "2025-156A",
   "group": "resource",
   "gcat": {
    "class": "C",
    "category": "SCI",
    "owner": "CNES",
    "state": "F"
   },
   "omm": {
    "OBJECT_NAME": "MICROCARB",
    "OBJECT_ID": "2025-156A",
    "EPOCH": "2026-06-11T15:28:40.889280",
    "MEAN_MOTION": 14.72319891,
    "ECCENTRICITY": 0.0015026,
    "INCLINATION": 97.9832,
    "RA_OF_ASC_NODE": 239.8811,
    "ARG_OF_PERICENTER": 291.6302,
    "MEAN_ANOMALY": 68.3304,
    "EPHEMERIS_TYPE": 0,
    "CLASSIFICATION_TYPE": "U",
    "NORAD_CAT_ID": 64899,
    "ELEMENT_SET_NO": 999,
    "REV_AT_EPOCH": 4715,
    "BSTAR": 0.000074946,
    "MEAN_MOTION_DOT": 0.00000425,
    "MEAN_MOTION_DDOT": 0
   }
  },
  {
   "norad": 64723,
   "name": "MTG-S1",
   "intl": "2025-143A",
   "group": "weather",
   "gcat": {
    "class": "C",
    "category": "MET",
    "owner": "EUMET",
    "state": "I-EUM"
   },
   "omm": {
    "OBJECT_NAME": "MTG-S1",
    "OBJECT_ID": "2025-143A",
    "EPOCH": "2026-06-11T08:05:42.897984",
    "MEAN_MOTION": 1.00271596,
    "ECCENTRICITY": 0.00009689,
    "INCLINATION": 0.6085,
    "RA_OF_ASC_NODE": 337.5964,
    "ARG_OF_PERICENTER": 19.3395,
    "MEAN_ANOMALY": 20.7012,
    "EPHEMERIS_TYPE": 0,
    "CLASSIFICATION_TYPE": "U",
    "NORAD_CAT_ID": 64723,
    "ELEMENT_SET_NO": 999,
    "REV_AT_EPOCH": 336,
    "BSTAR": 0,
    "MEAN_MOTION_DOT": -1.5e-7,
    "MEAN_MOTION_DDOT": 0
   }
  },
  {
   "norad": 46277,
   "name": "NEMO-HD",
   "intl": "2020-061F",
   "group": "resource",
   "gcat": {
    "class": "A",
    "category": "IMG",
    "owner": "SPSI",
    "state": "SI"
   },
   "omm": {
    "OBJECT_NAME": "NEMO-HD",
    "OBJECT_ID": "2020-061F",
    "EPOCH": "2026-06-11T16:30:16.068672",
    "MEAN_MOTION": 15.4448398,
    "ECCENTRICITY": 0.0002462,
    "INCLINATION": 97.1928,
    "RA_OF_ASC_NODE": 224.6961,
    "ARG_OF_PERICENTER": 87.3051,
    "MEAN_ANOMALY": 272.848,
    "EPHEMERIS_TYPE": 0,
    "CLASSIFICATION_TYPE": "U",
    "NORAD_CAT_ID": 46277,
    "ELEMENT_SET_NO": 999,
    "REV_AT_EPOCH": 32113,
    "BSTAR": 0.00021329,
    "MEAN_MOTION_DOT": 0.00009797,
    "MEAN_MOTION_DDOT": 0
   }
  },
  {
   "norad": 65053,
   "name": "NISAR",
   "intl": "2025-163A",
   "group": "sar",
   "gcat": {
    "class": "C",
    "category": "IMG-R",
    "owner": "ISRO/JPL",
    "state": "IN"
   },
   "omm": {
    "OBJECT_NAME": "NISAR",
    "OBJECT_ID": "2025-163A",
    "EPOCH": "2026-06-11T16:26:46.743072",
    "MEAN_MOTION": 14.4250552,
    "ECCENTRICITY": 0.0001217,
    "INCLINATION": 98.4052,
    "RA_OF_ASC_NODE": 350.4306,
    "ARG_OF_PERICENTER": 89.2424,
    "MEAN_ANOMALY": 270.8905,
    "EPHEMERIS_TYPE": 0,
    "CLASSIFICATION_TYPE": "U",
    "NORAD_CAT_ID": 65053,
    "ELEMENT_SET_NO": 999,
    "REV_AT_EPOCH": 4559,
    "BSTAR": 0.000077771,
    "MEAN_MOTION_DOT": 0.00000214,
    "MEAN_MOTION_DDOT": 0
   }
  }
 ]
}
